start=new Date('2021-09-17T00:00:00.000Z').valueOf();
sats=[{"TLE_LINE2":"2 44759  53.0567   6.4826 0001238 121.6611 238.4499 15.06391972 99409","LAUNCH_DATE":"2019-11-11","CLASSIFICATION_TYPE":"U","OBJECT_ID":"2019-074AY","MEAN_MOTION_DDOT":"0.0000000000000","PERIOD":"95.593","RCS_SIZE":"LARGE","MEAN_ELEMENT_THEORY":"SGP4","APOAPSIS":"548.096","REF_FRAME":"TEME","SITE":"AFETR","TLE_LINE1":"1 44759U 19074AY  21259.67757246 -.00000694  00000-0 -27698-4 0  9990","ARG_OF_PERICENTER":"121.6611","OBJECT_TYPE":"PAYLOAD","OBJECT_NAME":"STARLINK-1054","RA_OF_ASC_NODE":"6.4826","SEMIMAJOR_AXIS":"6925.373","COUNTRY_CODE":"US","MEAN_MOTION":"15.06391972","GP_ID":"184850177","ELEMENT_SET_NO":"999","ECCENTRICITY":"0.00012380","EPOCH":"2021-09-16T16:15:42.260544","CENTER_NAME":"EARTH","FILE":"3117438","BSTAR":"-0.00002769800000","PERIAPSIS":"546.381","MEAN_ANOMALY":"238.4499","NORAD_CAT_ID":"44759","TIME_SYSTEM":"UTC","REV_AT_EPOCH":"9940","DECAY_DATE":null,"EPHEMERIS_TYPE":"0","INCLINATION":"53.0567","MEAN_MOTION_DOT":"-0.00000694"},{"SEMIMAJOR_AXIS":"6925.377","GP_ID":"184850929","COUNTRY_CODE":"US","MEAN_MOTION":"15.06390775","PERIOD":"95.593","OBJECT_ID":"2019-074AZ","MEAN_MOTION_DDOT":"0.0000000000000","MEAN_ELEMENT_THEORY":"SGP4","RCS_SIZE":"LARGE","LAUNCH_DATE":"2019-11-11","TLE_LINE2":"2 44760  53.0564   6.5532 0001154 102.5292 257.5826 15.06390775101762","CLASSIFICATION_TYPE":"U","ARG_OF_PERICENTER":"102.5292","OBJECT_TYPE":"PAYLOAD","OBJECT_NAME":"STARLINK-1055","RA_OF_ASC_NODE":"6.5532","REF_FRAME":"TEME","SITE":"AFETR","APOAPSIS":"548.041","TLE_LINE1":"1 44760U 19074AZ  21259.66282901 -.00000747  00000-0 -31307-4 0  9993","MEAN_ANOMALY":"257.5826","PERIAPSIS":"546.443","FILE":"3117438","CENTER_NAME":"EARTH","BSTAR":"-0.00003130700000","DECAY_DATE":null,"INCLINATION":"53.0564","EPHEMERIS_TYPE":"0","REV_AT_EPOCH":"10176","MEAN_MOTION_DOT":"-0.00000747","NORAD_CAT_ID":"44760","TIME_SYSTEM":"UTC","ECCENTRICITY":"0.00011540","EPOCH":"2021-09-16T15:54:28.426464","ELEMENT_SET_NO":"999"},{"ECCENTRICITY":"0.00011240","EPOCH":"2021-09-16T14:34:51.393792","ELEMENT_SET_NO":"999","MEAN_ANOMALY":"243.6264","PERIAPSIS":"546.470","FILE":"3117438","CENTER_NAME":"EARTH","BSTAR":"-0.00000898380000","DECAY_DATE":null,"INCLINATION":"53.0555","EPHEMERIS_TYPE":"0","REV_AT_EPOCH":"10175","MEAN_MOTION_DOT":"-0.00000415","NORAD_CAT_ID":"44761","TIME_SYSTEM":"UTC","PERIOD":"95.593","OBJECT_ID":"2019-074BA","MEAN_MOTION_DDOT":"0.0000000000000","RCS_SIZE":"LARGE","MEAN_ELEMENT_THEORY":"SGP4","TLE_LINE2":"2 44761  53.0555   6.7939 0001124 116.4841 243.6264 15.06388558101754","LAUNCH_DATE":"2019-11-11","CLASSIFICATION_TYPE":"U","OBJECT_TYPE":"PAYLOAD","ARG_OF_PERICENTER":"116.4841","OBJECT_NAME":"STARLINK-1056","RA_OF_ASC_NODE":"6.7939","SITE":"AFETR","REF_FRAME":"TEME","APOAPSIS":"548.027","TLE_LINE1":"1 44761U 19074BA  21259.60753928 -.00000415  00000-0 -89838-5 0  9995","SEMIMAJOR_AXIS":"6925.384","GP_ID":"184850675","COUNTRY_CODE":"US","MEAN_MOTION":"15.06388558"},{"ELEMENT_SET_NO":"999","ECCENTRICITY":"0.00009450","EPOCH":"2021-09-16T13:01:57.709056","NORAD_CAT_ID":"44762","TIME_SYSTEM":"UTC","REV_AT_EPOCH":"10201","DECAY_DATE":null,"EPHEMERIS_TYPE":"0","INCLINATION":"53.0544","MEAN_MOTION_DOT":"-0.00000156","CENTER_NAME":"EARTH","FILE":"3117121","BSTAR":"0.00000841080000","PERIAPSIS":"546.575","MEAN_ANOMALY":"237.3017","APOAPSIS":"547.884","SITE":"AFETR","REF_FRAME":"TEME","TLE_LINE1":"1 44762U 19074BB  21259.54302904 -.00000156  00000-0  84108-5 0  9999","OBJECT_NAME":"STARLINK-1057","OBJECT_TYPE":"PAYLOAD","ARG_OF_PERICENTER":"122.8063","RA_OF_ASC_NODE":"347.0880","LAUNCH_DATE":"2019-11-11","TLE_LINE2":"2 44762  53.0544 347.0880 0000945 122.8063 237.3017 15.06394734102015","CLASSIFICATION_TYPE":"U","MEAN_MOTION_DDOT":"0.0000000000000","OBJECT_ID":"2019-074BB","PERIOD":"95.592","RCS_SIZE":"LARGE","MEAN_ELEMENT_THEORY":"SGP4","COUNTRY_CODE":"US","MEAN_MOTION":"15.06394734","GP_ID":"184819722","SEMIMAJOR_AXIS":"6925.365"},{"MEAN_MOTION":"15.06396111","COUNTRY_CODE":"US","GP_ID":"184849678","SEMIMAJOR_AXIS":"6925.360","REF_FRAME":"TEME","SITE":"AFETR","APOAPSIS":"548.027","TLE_LINE1":"1 44763U 19074BC  21259.69600363  .00001326  00000-0  10792-3 0  9991","OBJECT_NAME":"STARLINK-1058","OBJECT_TYPE":"PAYLOAD","ARG_OF_PERICENTER":"113.6311","RA_OF_ASC_NODE":"6.3968","TLE_LINE2":"2 44763  53.0564   6.3968 0001157 113.6311 246.4799 15.06396111101760","LAUNCH_DATE":"2019-11-11","CLASSIFICATION_TYPE":"U","PERIOD":"95.592","MEAN_MOTION_DDOT":"0.0000000000000","OBJECT_ID":"2019-074BC","RCS_SIZE":"LARGE","MEAN_ELEMENT_THEORY":"SGP4","NORAD_CAT_ID":"44763","TIME_SYSTEM":"UTC","EPHEMERIS_TYPE":"0","DECAY_DATE":null,"INCLINATION":"53.0564","REV_AT_EPOCH":"10176","MEAN_MOTION_DOT":"0.00001326","FILE":"3117438","CENTER_NAME":"EARTH","BSTAR":"0.00010792000000","MEAN_ANOMALY":"246.4799","PERIAPSIS":"546.424","ELEMENT_SET_NO":"999","ECCENTRICITY":"0.00011570","EPOCH":"2021-09-16T16:42:14.713632"},{"ELEMENT_SET_NO":"999","ECCENTRICITY":"0.00012450","EPOCH":"2021-09-16T16:07:44.029632","CENTER_NAME":"EARTH","FILE":"3117438","BSTAR":"0.00002039900000","PERIAPSIS":"546.355","MEAN_ANOMALY":"248.6357","NORAD_CAT_ID":"44764","TIME_SYSTEM":"UTC","REV_AT_EPOCH":"10203","DECAY_DATE":null,"EPHEMERIS_TYPE":"0","INCLINATION":"53.0556","MEAN_MOTION_DOT":"0.00000022","TLE_LINE2":"2 44764  53.0556 346.5057 0001245 111.4764 248.6357 15.06398703102030","LAUNCH_DATE":"2019-11-11","CLASSIFICATION_TYPE":"U","OBJECT_ID":"2019-074BD","MEAN_MOTION_DDOT":"0.0000000000000","PERIOD":"95.592","MEAN_ELEMENT_THEORY":"SGP4","RCS_SIZE":"LARGE","APOAPSIS":"548.080","SITE":"AFETR","REF_FRAME":"TEME","TLE_LINE1":"1 44764U 19074BD  21259.67203738  .00000022  00000-0  20399-4 0  9992","ARG_OF_PERICENTER":"111.4764","OBJECT_TYPE":"PAYLOAD","OBJECT_NAME":"STARLINK-1059","RA_OF_ASC_NODE":"346.5057","SEMIMAJOR_AXIS":"6925.353","MEAN_MOTION":"15.06398703","COUNTRY_CODE":"US","GP_ID":"184850430"},{"COUNTRY_CODE":"US","MEAN_MOTION":"15.06384836","GP_ID":"184851175","SEMIMAJOR_AXIS":"6925.395","TLE_LINE1":"1 44765U 19074BE  21259.62413734 -.00001006  00000-0 -48708-4 0  9996","REF_FRAME":"TEME","SITE":"AFETR","APOAPSIS":"547.926","RA_OF_ASC_NODE":"346.7141","OBJECT_TYPE":"PAYLOAD","ARG_OF_PERICENTER":"110.9377","OBJECT_NAME":"STARLINK-1060","CLASSIFICATION_TYPE":"U","LAUNCH_DATE":"2019-11-11","TLE_LINE2":"2 44765  53.0538 346.7141 0000962 110.9377 249.1715 15.06384836102021","MEAN_ELEMENT_THEORY":"SGP4","RCS_SIZE":"LARGE","PERIOD":"95.593","MEAN_MOTION_DDOT":"0.0000000000000","OBJECT_ID":"2019-074BE","TIME_SYSTEM":"UTC","NORAD_CAT_ID":"44765","MEAN_MOTION_DOT":"-0.00001006","INCLINATION":"53.0538","DECAY_DATE":null,"EPHEMERIS_TYPE":"0","REV_AT_EPOCH":"10202","BSTAR":"-0.00004870800000","FILE":"3117438","CENTER_NAME":"EARTH","MEAN_ANOMALY":"249.1715","PERIAPSIS":"546.594","ELEMENT_SET_NO":"999","ECCENTRICITY":"0.00009620","EPOCH":"2021-09-16T14:58:45.466176"},{"GP_ID":"184849429","COUNTRY_CODE":"US","MEAN_MOTION":"15.06400706","SEMIMAJOR_AXIS":"6925.346","RA_OF_ASC_NODE":"6.4237","OBJECT_NAME":"STARLINK-1061","OBJECT_TYPE":"PAYLOAD","ARG_OF_PERICENTER":"118.5167","TLE_LINE1":"1 44766U 19074BF  21259.68862099  .00000903  00000-0  79464-4 0  9991","APOAPSIS":"547.822","SITE":"AFETR","REF_FRAME":"TEME","RCS_SIZE":"LARGE","MEAN_ELEMENT_THEORY":"SGP4","MEAN_MOTION_DDOT":"0.0000000000000","OBJECT_ID":"2019-074BF","PERIOD":"95.592","CLASSIFICATION_TYPE":"U","LAUNCH_DATE":"2019-11-11","TLE_LINE2":"2 44766  53.0549   6.4237 0000881 118.5167 241.5911 15.06400706101760","MEAN_MOTION_DOT":"0.00000903","REV_AT_EPOCH":"10176","DECAY_DATE":null,"INCLINATION":"53.0549","EPHEMERIS_TYPE":"0","TIME_SYSTEM":"UTC","NORAD_CAT_ID":"44766","PERIAPSIS":"546.601","MEAN_ANOMALY":"241.5911","BSTAR":"0.00007946400000","CENTER_NAME":"EARTH","FILE":"3117438","ECCENTRICITY":"0.00008810","EPOCH":"2021-09-16T16:31:36.853536","ELEMENT_SET_NO":"999"},{"CLASSIFICATION_TYPE":"U","TLE_LINE2":"2 44767  53.0554   6.4595 0001493 120.1545 239.9592 15.06390340101761","LAUNCH_DATE":"2019-11-11","RCS_SIZE":"LARGE","MEAN_ELEMENT_THEORY":"SGP4","OBJECT_ID":"2019-074BG","MEAN_MOTION_DDOT":"0.0000000000000","PERIOD":"95.593","TLE_LINE1":"1 44767U 19074BG  21259.68125487  .00001113  00000-0  93639-4 0  9999","APOAPSIS":"548.277","SITE":"AFETR","REF_FRAME":"TEME","RA_OF_ASC_NODE":"6.4595","OBJECT_NAME":"STARLINK-1062","OBJECT_TYPE":"PAYLOAD","ARG_OF_PERICENTER":"120.1545","SEMIMAJOR_AXIS":"6925.378","MEAN_MOTION":"15.06390340","COUNTRY_CODE":"US","GP_ID":"184850178","ELEMENT_SET_NO":"999","ECCENTRICITY":"0.00014930","EPOCH":"2021-09-16T16:21:00.420768","BSTAR":"0.00009363900000","CENTER_NAME":"EARTH","FILE":"3117438","PERIAPSIS":"546.209","MEAN_ANOMALY":"239.9592","TIME_SYSTEM":"UTC","NORAD_CAT_ID":"44767","MEAN_MOTION_DOT":"0.00001113","REV_AT_EPOCH":"10176","DECAY_DATE":null,"EPHEMERIS_TYPE":"0","INCLINATION":"53.0554"},{"RA_OF_ASC_NODE":"6.9641","ARG_OF_PERICENTER":"104.3288","OBJECT_TYPE":"PAYLOAD","OBJECT_NAME":"STARLINK-1063","TLE_LINE1":"1 44768U 19074BH  21259.57066745  .00001057  00000-0  89828-4 0  9991","APOAPSIS":"548.083","REF_FRAME":"TEME","SITE":"AFETR","RCS_SIZE":"LARGE","MEAN_ELEMENT_THEORY":"SGP4","MEAN_MOTION_DDOT":"0.0000000000000","OBJECT_ID":"2019-074BH","PERIOD":"95.592","CLASSIFICATION_TYPE":"U","TLE_LINE2":"2 44768  53.0548   6.9641 0001268 104.3288 255.7842 15.06402712101918","LAUNCH_DATE":"2019-11-11","GP_ID":"184825940","COUNTRY_CODE":"US","MEAN_MOTION":"15.06402712","SEMIMAJOR_AXIS":"6925.340","ECCENTRICITY":"0.00012680","EPOCH":"2021-09-16T13:41:45.667680","ELEMENT_SET_NO":"999","MEAN_MOTION_DOT":"0.00001057","REV_AT_EPOCH":"10191","DECAY_DATE":null,"EPHEMERIS_TYPE":"0","INCLINATION":"53.0548","TIME_SYSTEM":"UTC","NORAD_CAT_ID":"44768","PERIAPSIS":"546.327","MEAN_ANOMALY":"255.7842","BSTAR":"0.00008982800000","CENTER_NAME":"EARTH","FILE":"3117250"}];
